METEOR-M2 2             
1 44387U 19038A   23024.45734132  .00000131  00000+0  76613-4 0  9998
2 44387  98.7546 348.8091 0001764  33.9240 326.2051 14.23744125184857
